"fid";"name";"email";"phone";"address";"city";"state";"zip"
30;"Meembee";"gwicklingt@about.me";"518-617-0380";"04410 Gateway Terrace";"Schenectady";"NY";79156
31;"Jatri";"wfairbanku@dmoz.org";"702-302-6295";"87993 Morrow Terrace";"Las Vegas";"NV";19141
32;"Roodel";"eotridgev@people.com.cn";"402-229-7767";"00718 Spohn Junction";"Omaha";"NE";54917
33;"Youopia";"apeterffyw@g.co";"727-463-5755";"2749 Farmco Parkway";"Saint Petersburg";"FL";51018
34;"Oodoo";"epopleex@examiner.com";"913-211-2650";"80283 Eagle Crest Circle";"Kansas City";"KS";83226
35;"Zoomdog";"awoolacotty@dailymail.co.uk";"321-684-2396";"8 Bowman Street";"Melbourne";"FL";58867
36;"Tavu";"wanwylz@parallels.com";"847-568-6196";"695 Orin Pass";"Palatine";"IL";64451
37;"Photobug";"areally10@apache.org";"619-508-4364";"48 Haas Point";"San Diego";"CA";73716
38;"Linklinks";"mseligson11@multiply.com";"805-907-7666";"8098 Holmberg Trail";"Simi Valley";"CA";87206
39;"Chatterbridge";"dsedgman12@craigslist.org";"713-277-3317";"3 Killdeer Street";"Houston";"TX";57128
40;"Talane";"atriplow13@canalblog.com";"337-358-7684";"1999 Fallview Center";"Lafayette";"LA";84693
41;"Gabtype";"cmacranald14@usnews.com";"786-125-2940";"319 Fisk Street";"Miami";"FL";39632
42;"Oodoo";"lspirit15@slate.com";"217-159-3260";"92 Steensland Way";"Springfield";"IL";54654
43;"Skipstorm";"tbulman16@state.gov";"602-349-1681";"566 Forest Terrace";"Phoenix";"AZ";7783
44;"Shuffletag";"dhounsom17@theguardian.com";"415-206-1357";"34916 Mitchell Way";"San Rafael";"CA";50952
45;"Blogspan";"ksilvers18@cyberchimps.com";"212-837-1836";"8 3rd Street";"Jamaica";"NY";81262
46;"Tagchat";"odaniely19@nba.com";"518-159-1075";"1 Algoma Road";"Albany";"NY";48424
47;"Oba";"rpetrolli1a@webnode.com";"972-924-1670";"76 Esch Lane";"Dallas";"TX";89683
48;"Jabbercube";"cvagg1b@adobe.com";"702-812-1624";"710 Surrey Lane";"Las Vegas";"NV";17829
49;"Plajo";"vkunze1c@ebay.com";"949-217-2619";"4 Anthes Center";"Irvine";"CA";25210
50;"Aivee";"ehearns1d@noaa.gov";"706-772-5995";"653 Comanche Terrace";"Columbus";"GA";23517
51;"DabZ";"ahaffenden1e@aol.com";"505-351-1249";"92 Monterey Alley";"Albuquerque";"NM";33745
52;"Skyndu";"slaughlin1f@tripod.com";"916-399-2141";"06181 Mandrake Lane";"Chico";"CA";7428
53;"Leexo";"oconcannon1g@npr.org";"478-296-6818";"03932 Katie Hill";"Macon";"GA";81731
54;"Roomm";"ahaggett1h@example.com";"860-448-9659";"54 Utah Street";"Hartford";"CT";2428
55;"Zoombeat";"bcopnall1i@facebook.com";"202-850-6960";"1 Mcbride Alley";"Washington";"DC";40197
56;"Rhycero";"mcantua1j@cdc.gov";"918-985-6626";"85390 Oxford Place";"Tulsa";"OK";44239
57;"Latz";"lohallihane1k@t-online.de";"703-247-7590";"67716 Hintze Alley";"Alexandria";"VA";22070
58;"Yadel";"astair1l@who.int";"646-132-8857";"8 Mesta Avenue";"New York City";"NY";85970
59;"Meetz";"kmuldowney1m@lycos.com";"361-760-4211";"9374 Roth Terrace";"Corpus Christi";"TX";31015
60;"Vidoo";"pogrowgane1n@columbia.edu";"603-577-6286";"3 Judy Place";"Portsmouth";"NH";43579
61;"Wikizz";"gfishly1o@vinaora.com";"518-587-3638";"205 Caliangt Road";"Albany";"NY";26208
62;"Jatri";"ckruschev1p@paginegialle.it";"215-613-4667";"95361 Maple Pass";"Philadelphia";"PA";77597
63;"Kanoodle";"lclutterbuck1q@devhub.com";"571-309-7774";"645 West Park";"Falls Church";"VA";70710
64;"Devcast";"bepinoy1r@elpais.com";"205-923-9884";"72 Sycamore Avenue";"Birmingham";"AL";16260
65;"Ooba";"ktriggel1s@newsvine.com";"260-865-3888";"5 Heath Lane";"Fort Wayne";"IN";52213
66;"Rhybox";"prilings1t@a8.net";"262-294-3574";"5956 Corry Terrace";"Racine";"WI";33543
67;"Jaxbean";"vpeschka1u@mayoclinic.com";"318-371-0776";"3 Columbus Crossing";"Shreveport";"LA";93205
68;"Shufflester";"bianiello1v@wsj.com";"402-833-9616";"7 Lindbergh Terrace";"Lincoln";"NE";43581
69;"Edgewire";"ncomberbach1w@nih.gov";"203-627-3551";"5 Talisman Hill";"New Haven";"CT";59936
70;"Meetz";"spotteridge1x@google.com";"260-772-2131";"8889 Homewood Place";"Fort Wayne";"IN";30636
71;"Feedmix";"gjado1y@hostgator.com";"309-259-2818";"08 Farmco Trail";"Peoria";"IL";98972
72;"Layo";"rfulbrook1z@newyorker.com";"816-155-0156";"04 Maryland Crossing";"Kansas City";"MO";79068
73;"Skyndu";"tkeune20@linkedin.com";"213-240-2812";"7450 Prairieview Hill";"Los Angeles";"CA";25198
74;"Innojam";"tmineghelli21@zdnet.com";"217-705-9630";"00402 Barby Street";"Springfield";"IL";52724
75;"Youopia";"mleate22@netscape.com";"561-297-8015";"36068 Birchwood Way";"Boynton Beach";"FL";96512
76;"Eadel";"pgrimoldby23@mapy.cz";"212-106-0433";"57559 Blackbird Way";"Brooklyn";"NY";45911
77;"Gigashots";"btilney24@imageshack.us";"206-612-7752";"9 Prairieview Point";"Seattle";"WA";77048
78;"Vimbo";"hferby25@ihg.com";"602-586-3592";"99895 Loomis Road";"Tempe";"AZ";33120
79;"Zooveo";"mcarvill26@hibu.com";"208-479-2090";"7 Red Cloud Crossing";"Boise";"ID";83265
80;"Voomm";"ahullock27@hc360.com";"559-438-6785";"138 Maryland Way";"Fresno";"CA";26558
81;"Yamia";"emulrean28@spotify.com";"915-800-9782";"74947 Morrow Point";"El Paso";"TX";22893
82;"Flashdog";"bbraysher29@pagesperso-orange.fr";"513-830-4275";"4 Forest Road";"Cincinnati";"OH";31708
83;"Centimia";"nmaypole2a@facebook.com";"318-477-0126";"46721 Esch Park";"Shreveport";"LA";11859
84;"Edgepulse";"mpieters2b@biblegateway.com";"253-328-5885";"623 Dunning Lane";"Tacoma";"WA";70949
85;"Chatterpoint";"remmerson2c@tripadvisor.com";"786-240-7764";"102 Northland Drive";"Miami";"FL";90175
86;"Shuffletag";"csmallthwaite2d@weebly.com";"727-167-6325";"921 Pierstorff Crossing";"Clearwater";"FL";77102
87;"Jabbercube";"elarking2e@psu.edu";"812-654-2597";"14 Moulton Way";"Evansville";"IN";67068
88;"Ntag";"asacker2f@wordpress.org";"754-835-4646";"24545 Del Mar Drive";"Pompano Beach";"FL";69062
89;"Zoomlounge";"tmcnicol2g@unicef.org";"212-878-6327";"831 Hauk Place";"New York City";"NY";33524
90;"Cogidoo";"dablott2h@nymag.com";"404-286-2955";"91 Maywood Trail";"Atlanta";"GA";8912
91;"Tagopia";"cgounet2i@house.gov";"913-869-4986";"1 Pennsylvania Court";"Shawnee Mission";"KS";91031
92;"Photofeed";"lhemphrey2j@twitter.com";"804-740-1870";"23 Village Green Crossing";"Richmond";"VA";69690
93;"Kazu";"msanney2k@ustream.tv";"401-522-5199";"7611 Buell Crossing";"Providence";"RI";87498
94;"Demivee";"sdaulby2l@indiatimes.com";"414-268-5166";"6251 Banding Point";"Milwaukee";"WI";37563
95;"JumpXS";"hbolland2m@desdev.cn";"202-332-5218";"697 5th Center";"Silver Spring";"MD";12776
96;"Yambee";"fpirelli2n@booking.com";"763-391-8615";"642 Kropf Center";"Monticello";"MN";41072
97;"Plajo";"elarman2o@bigcartel.com";"806-393-4420";"95150 Michigan Lane";"Amarillo";"TX";25521
98;"Rhycero";"krossborough2p@tamu.edu";"412-179-2799";"153 Division Avenue";"Pittsburgh";"PA";97795
99;"Trilith";"kpulley2q@telegraph.co.uk";"478-270-4184";"8 Graceland Center";"Macon";"GA";40683
100;"Thoughtworks";"gcasini2r@loc.gov";"404-827-8261";"8771 American Road";"Decatur";"GA";77699
101;"Cogilith";"vjatczak2s@mozilla.org";"201-959-3477";"9 Vahlen Drive";"Newark";"NJ";12376
102;"Jabberstorm";"ngebhard2t@intel.com";"918-502-6041";"0766 Mitchell Point";"Tulsa";"OK";15766
103;"Eayo";"wtrassler2u@usnews.com";"812-723-6125";"71 Manitowish Drive";"Jeffersonville";"IN";39313
104;"Jaxbean";"rletcher2v@bigcartel.com";"704-108-0820";"76 Heath Park";"Charlotte";"NC";15838
105;"Livetube";"rorringe2w@paginegialle.it";"202-579-3805";"745 Forest Hill";"Washington";"DC";6061
106;"Quimm";"smctrusty2x@sun.com";"254-365-9645";"91 Sutteridge Circle";"Temple";"TX";36528
107;"Tagchat";"dthwaite2y@latimes.com";"801-287-2597";"02 Hollow Ridge Court";"Salt Lake City";"UT";26270
108;"Voolia";"lbortolini2z@blogs.com";"202-993-0176";"580 Forster Terrace";"Washington";"DC";86144
109;"Kwinu";"binsoll30@chron.com";"608-851-2358";"16012 Autumn Leaf Avenue";"Madison";"WI";62140
110;"Bluejam";"jvoyce31@taobao.com";"806-319-3569";"4 Columbus Street";"Lubbock";"TX";54706
111;"Meevee";"rfilby32@list-manage.com";"954-317-5717";"7 Shasta Circle";"Fort Lauderdale";"FL";56025
112;"Aimbo";"hcaunce33@rediff.com";"304-362-1735";"222 Montana Lane";"Huntington";"WV";8025
9000;"Schafer Farm";"schafDaBest@gmail.com";"";"tbd";"Olympia";"WA";999999
200;"Produce4All";"p4a@gmail.com";"222-222-2222";"1061 Magdeline Road";"Oakland";"CA";94614
209;"Produce4All";"p4a@gmail.com";"222-222-2222";"1061 Magdeline Road";"Oakland";"CA";94614
211;"Produce4All";"p4a@gmail.com";"222-222-2222";"1061 Magdeline Road";"Oakland";"CA";94614
